ORBCOMM FM103           
1 40091U 14040F   25163.04726536  .00000308  00000+0  10283-3 0  9990
2 40091  47.0068  42.0773 0002211 262.3980  97.6655 14.58164408580417
ORBCOMM FM114           
1 41179U 15081A   25163.48010252  .00000397  00000+0  12183-3 0  9992
2 41179  47.0038 309.0841 0002323 308.5883  51.4795 14.58207084503835
ORBCOMM FM119           
1 41180U 15081B   25163.19380788  .00000306  00000+0  10234-3 0  9991
2 41180  46.9993 219.7464 0001021 328.9643  31.1182 14.58139385504998
ORBCOMM FM105           
1 41181U 15081C   25163.17494504  .00000109  00000+0  75356-4 0  9990
2 41181  47.0004 224.2953 0002568 284.1830  75.8765 14.45218946500137
ORBCOMM FM110           
1 41182U 15081D   25163.53159553  .00000594  00000+0  16466-3 0  9997
2 41182  47.0030 308.2837 0001780 178.6700 181.4190 14.58021210503846
ORBCOMM FM118           
1 41183U 15081E   25163.77984811  .00000637  00000+0  17245-3 0  9991
2 41183  47.0051 307.4641 0003751 140.6405 219.4754 14.58425017503880
ORBCOMM FM112           
1 41184U 15081F   25163.58090094  .00000389  00000+0  12003-3 0  9993
2 41184  46.9979 217.0661 0001909 299.9836  60.0860 14.58170097505048
ORBCOMM FM113           
1 41185U 15081G   25163.55762237  .00000379  00000+0  11795-3 0  9992
2 41185  46.9996 217.4989 0001578 308.5155  51.5588 14.58177053505049
